[{"OBJECT_NAME":"SENTINEL-1D","OBJECT_ID":"2025-251A","EPOCH":"2026-03-09T22:39:29.854656","MEAN_MOTION":14.59197847,"ECCENTRICITY":0.00012838,"INCLINATION":98.1825,"RA_OF_ASC_NODE":77.7074,"ARG_OF_PERICENTER":89.3991,"MEAN_ANOMALY":270.7355,"EPHEMERIS_TYPE":0,"CLASSIFICATION_TYPE":"U","NORAD_CAT_ID":66315,"ELEMENT_SET_NO":999,"REV_AT_EPOCH":1825,"BSTAR":3.3692424e-5,"MEAN_MOTION_DOT":1.13e-6,"MEAN_MOTION_DDOT":0},{"OBJECT_NAME":"THORAD AGENA D DEB","OBJECT_ID":"1969-082AM","EPOCH":"2026-03-09T22:14:09.171456","MEAN_MOTION":14.65352887,"ECCENTRICITY":0.00313994,"INCLINATION":70.1825,"RA_OF_ASC_NODE":268.8489,"ARG_OF_PERICENTER":177.163,"MEAN_ANOMALY":182.9698,"EPHEMERIS_TYPE":0,"CLASSIFICATION_TYPE":"U","NORAD_CAT_ID":4169,"ELEMENT_SET_NO":999,"REV_AT_EPOCH":95502,"BSTAR":0.00066750388,"MEAN_MOTION_DOT":3.568e-5,"MEAN_MOTION_DDOT":0}]
